[{"OBJECT_NAME":"STARLINK-30152","OBJECT_ID":"2023-079F","EPOCH":"2026-03-09T22:00:01.999584","MEAN_MOTION":15.1944586,"ECCENTRICITY":0.00011484,"INCLINATION":43.0001,"RA_OF_ASC_NODE":105.2934,"ARG_OF_PERICENTER":245.247,"MEAN_ANOMALY":289.956,"EPHEMERIS_TYPE":0,"CLASSIFICATION_TYPE":"U","NORAD_CAT_ID":56828,"ELEMENT_SET_NO":999,"REV_AT_EPOCH":578,"BSTAR":0.053468986,"MEAN_MOTION_DOT":0.01265867,"MEAN_MOTION_DDOT":0},{"OBJECT_NAME":"OBJECT AK","OBJECT_ID":"2023-085AK","EPOCH":"2026-03-09T22:56:06.883872","MEAN_MOTION":15.22552631,"ECCENTRICITY":0.0009301,"INCLINATION":97.4785,"RA_OF_ASC_NODE":174.9327,"ARG_OF_PERICENTER":89.7011,"MEAN_ANOMALY":270.5291,"EPHEMERIS_TYPE":0,"CLASSIFICATION_TYPE":"U","NORAD_CAT_ID":57037,"ELEMENT_SET_NO":999,"REV_AT_EPOCH":15122,"BSTAR":0.00049591669,"MEAN_MOTION_DOT":0.00011459,"MEAN_MOTION_DDOT":0}]
